LEMUR-2-GREENBERG       
1 42837U 17042N   26068.46200528  .00019778  00000+0  72539-3 0  9997
2 42837  97.3781 249.8007 0009157   4.0119 356.1192 15.27971352473146
STARLINK-31657          
1 59487U 24071D   26068.08129746 -.00004398  00000+0 -15047-3 0  9991
2 59487  43.0031 343.0916 0001439 283.5557  76.5134 15.27566210108116
